1 45183U 20012F   23306.17782661  .00003419  00000-0  24831-3 0  9996
2 45183  53.0545 300.6294 0001614  91.9391 268.1783 15.06401623204798
1 45183U 20012F   23306.31051528  .00004709  00000-0  33470-3 0  9995
2 45183  53.0546 300.0337 0001515 102.7054 257.4105 15.06410250205468
1 45183U 20012F   23306.70860365  .00002073  00000-0  15805-3 0  9999
2 45183  53.0546 298.2463 0001673  88.5298 271.5882 15.06398616205529
1 45183U 20012F   23307.17303336  .00002080  00000-0  15853-3 0  9992
2 45183  53.0552 296.1616 0001764  87.9465 272.1726 15.06397977204941
1 45183U 20012F   23307.37207241  .00002054  00000-0  15675-3 0  9995
2 45183  53.0546 295.2673 0001723  90.6699 269.4487 15.06400275205627
1 45183U 20012F   23307.77014795  .00003478  00000-0  25221-3 0  9998
2 45183  53.0548 293.4804 0001567  93.2712 266.8457 15.06409296205682
1 45183U 20012F   23307.77014795  .00003478  00000-0  25221-3 0  9998
2 45183  53.0548 293.4804 0001567  93.2712 266.8457 15.06409296205031
1 45183U 20012F   23308.36726026  .00007442  00000-0  51761-3 0  9994
2 45183  53.0542 290.7999 0001651  90.5464 269.5714 15.06424453205777
1 45183U 20012F   23308.36726026  .00007442  00000-0  51761-3 0  9994
2 45183  53.0542 290.7999 0001651  90.5464 269.5714 15.06424453205126
1 45183U 20012F   23308.96438656  .00002211  00000-0  16728-3 0  9992
2 45183  53.0541 288.1193 0001655  91.8319 268.2860 15.06407226205867
1 45183U 20012F   23309.22977275  .00001972  00000-0  15124-3 0  9999
2 45183  53.0544 286.9279 0001652  95.8354 264.2823 15.06406192205902
1 45183U 20012F   23309.22977275  .00001972  00000-0  15124-3 0  9999
2 45183  53.0544 286.9279 0001652  95.8354 264.2823 15.06406192205250
1 45183U 20012F   23309.95958210  .00019464  00000-0  13210-2 0  9995
2 45183  53.0542 283.6510 0001587  97.0447 263.0722 15.06427264206017
1 45183U 20012F   23310.09227154  .00025220  00000-0  17041-2 0  9991
2 45183  53.0545 283.0563 0001665  99.0228 261.0949 15.06440681205384
1 45183U 20012F   23310.22496087  .00026835  00000-0  18112-2 0  9992
2 45183  53.0547 282.4612 0001682 100.5948 259.5230 15.06448954206051
1 45183U 20012F   23310.62303899  .00011746  00000-0  80550-3 0  9995
2 45183  53.0546 280.6716 0000722  52.8194 307.2860 15.06427827206114
1 45183U 20012F   23310.62303899  .00011746  00000-0  80550-3 0  9995
2 45183  53.0546 280.6716 0000722  52.8194 307.2860 15.06427827205461
1 45183U 20012F   23311.15384586  .00009490  00000-0  65642-3 0  9994
2 45183  53.0540 278.2922 0001266  79.1536 280.9595 15.06327926205543
1 45183U 20012F   23311.35289594  .00020199  00000-0  13737-2 0  9995
2 45183  53.0536 277.3988 0001195  80.6581 279.4543 15.06328351206223
1 45183U 20012F   23311.61828468  .00015986  00000-0  10906-2 0  9996
2 45183  53.0546 276.2085 0000935 124.9150 235.1927 15.06366654205610
1 45183U 20012F   23312.14905949  .00043412  00000-0  29134-2 0  9993
2 45183  53.0533 273.8261 0001264 104.4640 255.6489 15.06425888205691
1 45183U 20012F   23312.28175134  .00029123  00000-0  19646-2 0  9993
2 45183  53.0528 273.2250 0001269  93.1025 267.0109 15.06425470206361
1 45183U 20012F   23312.28175134  .00029123  00000-0  19646-2 0  9993
2 45183  53.0528 273.2250 0001269  93.1025 267.0109 15.06425470205719
1 45183U 20012F   23313.14426171  .00011642  00000-0  79890-3 0  9994
2 45183  53.0533 269.3561 0001489  81.0953 279.0205 15.06412718205841
1 45183U 20012F   23313.27695474  .00011646  00000-0  79914-3 0  9993
2 45183  53.0533 268.7604 0001449  81.8939 278.2214 15.06412821206511
1 45183U 20012F   23314.13944907  .00015974  00000-0  10878-2 0  9998
2 45183  53.0537 264.8877 0001506  83.8077 276.3083 15.06437007206643
1 45183U 20012F   23315.06830333  .00003753  00000-0  27068-3 0  9990
2 45183  53.0539 260.7167 0001258 111.8550 248.2573 15.06408353206132
1 45183U 20012F   23315.26734645  .00005716  00000-0  40232-3 0  9990
2 45183  53.0546 259.8238 0001114  66.2805 293.8300 15.06401359206813
1 45183U 20012F   23315.26734645  .00005716  00000-0  40232-3 0  9990
2 45183  53.0546 259.8238 0001114  66.2805 293.8300 15.06401359206161
1 45183U 20012F   23315.86446813  .00008331  00000-0  57748-3 0  9999
2 45183  53.0552 257.1428 0001084  88.5078 271.6035 15.06403187206907
1 45183U 20012F   23316.06350644  .00008475  00000-0  58702-3 0  9998
2 45183  53.0543 256.2502 0001482  97.8773 262.2384 15.06408128206933
1 45183U 20012F   23317.05871441  .00001742  00000-0  13581-3 0  9997
2 45183  53.0539 251.7819 0001532 101.3050 258.8111 15.06396464206437
1 45183U 20012F   23317.52314428  .00003429  00000-0  24900-3 0  9997
2 45183  53.0538 249.6986 0001481  95.1749 264.9409 15.06396944207156
1 45183U 20012F   23318.12026043  .00009812  00000-0  67642-3 0  9999
2 45183  53.0544 247.0158 0001469  91.0961 269.0197 15.06414144206593
1 45183U 20012F   23318.51834229  .00003460  00000-0  25104-3 0  9995
2 45183  53.0549 245.2282 0001760  75.2598 284.8585 15.06407494207306
1 45183U 20012F   23318.51834229  .00003460  00000-0  25104-3 0  9995
2 45183  53.0549 245.2282 0001760  75.2598 284.8585 15.06407494206653
1 45183U 20012F   23319.11546969  .00001614  00000-0  12728-3 0  9990
2 45183  53.0540 242.5498 0001426  85.2316 274.8836 15.06390496206742
1 45183U 20012F   23319.18181708  .00003548  00000-0  25700-3 0  9995
2 45183  53.0539 242.2520 0001409  85.4776 274.6374 15.06391156207409
1 45183U 20012F   23320.04432812  .00015870  00000-0  10816-2 0  9999
2 45183  53.0539 238.3799 0001457  83.7842 276.3313 15.06410105206880
1 45183U 20012F   23320.17702029  .00015448  00000-0  10533-2 0  9990
2 45183  53.0538 237.7843 0001472  83.9539 276.1618 15.06414212207558
1 45183U 20012F   23321.17222857  .00004046  00000-0  29037-3 0  9999
2 45183  53.0548 233.3167 0002038  75.9650 284.1566 15.06399372207701
1 45183U 20012F   23321.17222857  .00004046  00000-0  29037-3 0  9999
2 45183  53.0548 233.3167 0002038  75.9650 284.1566 15.06399372207059
1 45183U 20012F   23322.43281551  .00002971  00000-0  21828-3 0  9990
2 45183  53.0546 227.6572 0002389  80.8356 279.2903 15.06396831207899
1 45183U 20012F   23322.43281551  .00002971  00000-0  21828-3 0  9990
2 45183  53.0546 227.6572 0002389  80.8356 279.2903 15.06396831207248
1 45183U 20012F   23322.69820043  .00000821  00000-0  74002-4 0  9998
2 45183  53.0539 226.4673 0001766  83.1273 276.9917 15.06400923207934
1 45183U 20012F   23323.42801771  .00000857  00000-0  76413-4 0  9994
2 45183  53.0548 223.1915 0001524  93.2219 266.8944 15.06397546208048
1 45183U 20012F   23323.42801771  .00000857  00000-0  76413-4 0  9994
2 45183  53.0548 223.1915 0001524  93.2219 266.8944 15.06397546207395
1 45183U 20012F   23323.89244073 -.00000498  00000-0 -14543-4 0  9990
2 45183  53.0546 221.1062 0001479  96.8139 263.3019 15.06407771208111
1 45183U 20012F   23324.42321742  .00000946  00000-0  82371-4 0  9999
2 45183  53.0534 218.7231 0001389  91.3168 268.7980 15.06402666208192
1 45183U 20012F   23324.88765081  .00000364  00000-0  43322-4 0  9994
2 45183  53.0533 216.6378 0001404  88.4781 271.6369 15.06392938208268
1 45183U 20012F   23325.08669223  .00001151  00000-0  96177-4 0  9999
2 45183  53.0536 215.7448 0001469  86.3714 273.7442 15.06394580207644
1 45183U 20012F   23325.41842321  .00002144  00000-0  16278-3 0  9994
2 45183  53.0536 214.2550 0001408  87.6439 272.4711 15.06401203208347
1 45183U 20012F   23325.88284565  .00003456  00000-0  25074-3 0  9996
2 45183  53.0535 212.1705 0001455  86.1755 273.9400 15.06411382208410
1 45183U 20012F   23326.08188273  .00004470  00000-0  31867-3 0  9992
2 45183  53.0537 211.2770 0001458  86.4041 273.7115 15.06416450208443
1 45183U 20012F   23326.08188273  .00004470  00000-0  31867-3 0  9992
2 45183  53.0537 211.2770 0001458  86.4041 273.7115 15.06416450207790
1 45183U 20012F   23326.87804944  .00001723  00000-0  13455-3 0  9990
2 45183  53.0532 207.7009 0001864 111.7296 248.3892 15.06402269208564
1 45183U 20012F   23327.07708970 -.00000832  00000-0 -36974-4 0  9999
2 45183  53.0544 206.8055 0001697 104.2295 255.8883 15.06402723208599
1 45183U 20012F   23327.07708970 -.00000832  00000-0 -36974-4 0  9999
2 45183  53.0544 206.8055 0001697 104.2295 255.8883 15.06402723207947
1 45183U 20012F   23327.80689673  .00002428  00000-0  18179-3 0  9995
2 45183  53.0545 203.5310 0001586  89.4814 270.6357 15.06414030208052
1 45183U 20012F   23327.93958957  .00003655  00000-0  26401-3 0  9993
2 45183  53.0540 202.9369 0001537  92.7809 267.3356 15.06415572208729
1 45183U 20012F   23328.07228160  .00004543  00000-0  32352-3 0  9994
2 45183  53.0536 202.3406 0001504  92.7404 267.3757 15.06417415208740
1 45183U 20012F   23328.80210755 -.00000685  00000-0 -27055-4 0  9996
2 45183  53.0529 199.0561 0001994 126.9306 233.1866 15.06391545208208
1 45183U 20012F   23328.93480401 -.00002828  00000-0 -17107-3 0  9994
2 45183  53.0528 198.4656 0001399 106.1553 253.9590 15.06386895208877
1 45183U 20012F   23329.59827784 -.00000562  00000-0 -18869-4 0  9996
2 45183  53.0533 195.4911 0001348 100.6036 259.5104 15.06388135208976
1 45183U 20012F   23329.86366497  .00002201  00000-0  16660-3 0  9991
2 45183  53.0527 194.3005 0001271  90.9324 269.1811 15.06396090209014
1 45183U 20012F   23329.86366497  .00002201  00000-0  16660-3 0  9991
2 45183  53.0527 194.3005 0001271  90.9324 269.1811 15.06396090208361
1 45183U 20012F   23330.79254035 -.00017543  00000-0 -11637-2 0  9994
2 45183  53.0522 190.1304 0001434  61.0387 299.0746 15.06338371208504
1 45183U 20012F   23330.92523986 -.00021772  00000-0 -14502-2 0  9996
2 45183  53.0524 189.5350 0000978  74.5251 285.5846 15.06324136209179
1 45183U 20012F   23330.99159139 -.00020861  00000-0 -13886-2 0  9990
2 45183  53.0524 189.2368 0000986  75.9273 284.1826 15.06323319208537
1 45183U 20012F   23331.58871178  .00004660  00000-0  33168-3 0  9993
2 45183  53.0525 186.5565 0000995  56.5755 303.5329 15.06384706209270
1 45183U 20012F   23331.78775314  .00007122  00000-0  49662-3 0  9992
2 45183  53.0526 185.6644 0001417  62.4174 297.6959 15.06392349208655
